Ron Helin,e,5.32874,157.37969,182.28328,2.2209416,0.29778195,0.2067549,100.02540,11/5/1990,1950.0,13.70,0.25
Ronan,e,7.76510,54.07964,74.81293,2.2820237,0.28590639,0.1549028,150.08641,11/5/1990,1950.0,13.00,0.25
Rontaylor,e,2.13668,9.26060,208.16537,2.3975110,0.26549916,0.1407325,172.45057,11/5/1990,1950.0,13.70,0.25
Rosa,e,1.94090,47.84669,59.20139,3.0854951,0.18185146,0.1309142,47.57645,11/5/1990,1950.0,9.95,0.15
Rosalia,e,12.57237,170.07509,191.17161,3.1433299,0.17685573,0.1867399,257.15292,11/5/1990,1950.0,9.77,0.15
Rosalinde,e,11.56377,182.09031,120.71309,2.4744544,0.25321236,0.1602919,218.53296,11/5/1990,1950.0,11.94,0.25
Rosamunde,e,5.57871,201.70610,337.31060,2.2190408,0.29816464,0.0894585,162.56295,11/5/1990,1950.0,10.75,0.25
Rosemary,e,1.43855,14.86269,19.28321,3.0730379,0.18295833,0.2381312,114.45503,11/5/1990,1950.0,14.70,0.25
Rosina,e,4.06372,290.06209,58.90741,2.2989305,0.28275826,0.2777813,204.08306,11/5/1990,1950.0,13.08,0.25
Rosseland,e,8.38807,119.62642,279.12470,2.3598124,0.27188664,0.1193803,177.82120,11/5/1990,1950.0,12.05,0.25
Rosselia,e,2.93782,139.24058,236.88753,2.8569435,0.20410403,0.0895480,227.17574,11/5/1990,1950.0,10.62,0.25
Rostia,e,2.28654,46.52747,351.56786,3.1404484,0.17709919,0.2035489,163.07129,11/5/1990,1950.0,11.70,0.25
Rostovdon,e,11.03938,267.20173,129.07434,3.1870093,0.17323238,0.1738105,184.23853,11/5/1990,1950.0,12.20,0.25
Roswitha,e,2.76587,13.37982,245.47631,2.6305485,0.23101203,0.1126425,8.57382,11/5/1990,1950.0,10.37,0.15
Rotanev,f,20:37:33,14:36,3.58,2000
Rotraut,e,11.13857,190.51225,15.02091,3.1586489,0.17557070,0.0688050,66.43970,11/5/1990,1950.0,9.77,0.15
Roucarie,e,10.20638,178.64528,292.42372,3.0221652,0.18759738,0.0607524,108.88572,11/5/1990,1950.0,11.41,0.25
Roudebush,e,1.24224,348.56539,2.78814,3.1080523,0.17987532,0.1739101,83.16644,11/5/1990,1950.0,11.70,0.25
Rovaniemi,e,6.71264,27.35905,36.57293,2.2256641,0.29683469,0.1429650,217.78773,11/5/1990,1950.0,12.42,0.25
Roxane,e,1.76661,150.88387,186.57285,2.2860944,0.28514307,0.0860005,240.21723,11/5/1990,1950.0,10.18,0.40
Ruanda,e,0.28904,200.23502,85.13442,2.7484377,0.21630932,0.1893801,29.87683,11/5/1990,1950.0,11.70,0.25
Rublyov,e,6.26426,140.25551,79.09305,2.6396551,0.22981761,0.0645488,342.57184,11/5/1990,1950.0,12.90,0.25
Ruby,e,7.49751,237.56957,14.01998,2.6894636,0.22346296,0.2168664,247.77720,11/5/1990,1950.0,11.80,0.25
Rudaux,e,4.66423,224.75476,144.14267,2.4195194,0.26188487,0.1831583,65.22083,11/5/1990,1950.0,13.90,0.25
Rudneva,e,3.21475,151.69130,61.49848,2.5455466,0.24267916,0.0433126,320.73114,11/5/1990,1950.0,12.10,0.25
Rufino,e,17.57091,148.63118,312.98409,2.5547363,0.24137093,0.2018804,244.04044,11/5/1990,1950.0,11.80,0.25
Ruikou,e,8.74598,338.71587,338.63491,2.6977847,0.22242988,0.1137062,37.51692,11/5/1990,1950.0,12.60,0.25
Rumpelstilz,e,5.39571,74.29542,167.39634,2.4363473,0.25917629,0.1268419,300.70605,11/5/1990,1950.0,11.42,0.25
Runrun Shaw,e,3.22225,19.31078,303.56370,2.2616964,0.28976946,0.1564977,278.47042,11/5/1990,1950.0,13.57,0.25
Ruperto-Carola,e,5.69460,102.36645,320.41200,2.7377596,0.21757606,0.3263156,257.95779,11/5/1990,1950.0,11.22,0.15
Rupertwildt,e,2.46069,74.08484,328.32444,3.1190152,0.17892780,0.1710215,26.16617,11/5/1990,1950.0,11.80,0.25
Ruppina,e,1.92652,174.66718,158.85131,2.9378398,0.19573204,0.0639993,307.85816,11/5/1990,1950.0,11.20,0.25
Rusheva,e,2.31774,161.45982,206.37549,2.8821891,0.20142824,0.0826140,269.60395,11/5/1990,1950.0,12.30,0.25
Russell,e,2.27599,160.36303,232.13026,2.8749616,0.20218829,0.0775620,202.97014,11/5/1990,1950.0,11.70,0.25
Russia,e,6.08837,152.16716,49.79864,2.5499836,0.24204604,0.1789145,102.02033,11/5/1990,1950.0,10.27,0.15
Rusthawelia,e,3.05139,122.53318,283.53112,3.1652501,0.17502176,0.2070852,241.28839,11/5/1990,1950.0,9.84,0.15
Ruth Wolfe,e,20.51257,245.70781,168.66764,2.5293249,0.24501753,0.2132727,264.66123,11/5/1990,1950.0,12.39,0.15
Ruth,e,9.23384,214.07441,51.30238,3.0137979,0.18837917,0.0407798,346.87472,11/5/1990,1950.0,9.64,0.24
Rutherfordia,e,4.87191,258.57534,222.85155,2.2242515,0.29711749,0.0764696,119.07298,11/5/1990,1950.0,11.77,0.25
Rutllant,e,5.92635,205.16903,37.89399,2.3091208,0.28088859,0.1726580,223.22020,11/5/1990,1950.0,13.69,0.25
Ruvuma,e,9.34330,78.19728,241.64003,2.7499549,0.21613033,0.2120199,207.86395,11/5/1990,1950.0,10.72,0.15
Ruzena,e,4.74190,185.42251,54.91322,2.2376250,0.29445783,0.0794385,245.85668,11/5/1990,1950.0,12.30,0.25
Ryazanov,e,3.95972,62.05380,275.53499,2.9584922,0.19368609,0.0718315,230.96760,11/5/1990,1950.0,12.20,0.25
Ryoma,e,1.33771,5.16649,346.94367,2.7460365,0.21659310,0.0808171,326.87652,11/5/1990,1950.0,11.90,0.25
Sabauda,e,15.36798,72.13348,50.90889,3.1036116,0.18026152,0.1677486,100.56261,11/5/1990,1950.0,9.31,0.15
Sabine,e,14.74140,298.38200,319.13131,3.1565669,0.17574443,0.1584134,292.79770,11/5/1990,1950.0,8.52,0.15
Sabrina,e,0.14893,245.99393,68.71876,3.1455799,0.17666600,0.1602074,145.25525,11/5/1990,1950.0,10.59,0.15
Sadachbia,f,22:21:39,-1:23,3.84,2000
Sadalmelik,f,22:5:47,0:19,2.93,2000
Sadalsud,f,21:31:34,-5:35,2.88,2000
Sadeya,e,25.31234,279.05589,148.77218,2.3632658,0.27129090,0.2751783,232.36897,11/5/1990,1950.0,11.40,0.25
Safara,e,11.49985,63.77833,223.14733,3.0105596,0.18868320,0.0729884,317.65684,11/5/1990,1950.0,10.97,0.25
Safronov,e,2.10491,135.24952,101.16604,3.1736417,0.17432803,0.1147288,281.63927,11/5/1990,1950.0,11.20,0.25
Saga,e,9.01192,127.68168,199.45993,3.2143513,0.17102676,0.0605801,0.25675,11/5/1990,1950.0,10.62,0.15
Sagan,e,2.73316,240.63443,308.26112,2.1950454,0.30306711,0.0699226,230.11840,11/5/1990,1950.0,13.44,0.25
Sahade,e,9.42073,171.68136,172.19095,3.0923444,0.18124761,0.0812319,343.81451,11/5/1990,1950.0,12.70,0.25
Sahlia,e,5.53704,359.28775,90.62691,2.2073188,0.30054291,0.0791681,230.79102,11/5/1990,1950.0,12.48,0.25
Saimaa,e,10.69817,156.54183,359.59933,3.0128076,0.18847206,0.0424218,310.47939,11/5/1990,1950.0,10.92,0.25
Saint-Exupery,e,10.55629,55.47817,334.51468,3.0045332,0.18925117,0.0901790,322.95460,11/5/1990,1950.0,11.70,0.25
Saito,e,4.27263,322.70371,344.37402,3.1665524,0.17491379,0.1658481,13.65395,11/5/1990,1950.0,12.90,0.25
Sakharov,e,6.05457,202.24399,220.37549,2.3746696,0.26933902,0.1000425,37.63616,11/5/1990,1950.0,13.60,0.25
Sakuntala,e,18.85460,106.28292,189.08086,2.5378036,0.24379065,0.2048730,308.23137,11/5/1990,1950.0,11.50,0.25
Salazar,e,2.09496,135.28236,168.91629,3.1669260,0.17488284,0.1597834,336.98435,11/5/1990,1950.0,12.10,0.25
Saldanha,e,10.67401,284.25843,55.53044,3.2107194,0.17131703,0.2088693,85.95829,11/5/1990,1950.0,10.92,0.15
Salli,e,11.44786,38.48738,209.38660,2.4007985,0.26495402,0.2380652,19.71383,11/5/1990,1950.0,12.10,0.25
Salome,e,11.11794,70.53298,258.47340,3.0186433,0.18792579,0.1014107,353.95307,11/5/1990,1950.0,10.02,0.36
Salonta,e,13.86599,260.29671,32.13139,3.1437167,0.17682309,0.0745063,33.58584,11/5/1990,1950.0,10.70,0.15
Salvia,e,5.13823,80.41190,31.81045,2.3292258,0.27725966,0.1819038,254.88942,11/5/1990,1950.0,12.80,0.25
Samantha,e,3.55187,215.76301,241.36704,2.6238197,0.23190125,0.1960590,91.09393,11/5/1990,1950.0,14.20,0.25
Samitchell,e,2.77884,161.54815,144.86227,3.9548982,0.12531444,0.1182011,252.06298,11/5/1990,1950.0,10.60,0.25
Sampo,e,11.38214,114.33971,325.29465,3.0136714,0.18839104,0.0575736,306.71631,11/5/1990,1950.0,10.40,0.25
San Diego,e,21.78405,350.55871,31.37434,1.9264732,0.36860363,0.1061335,355.73526,11/5/1990,1950.0,13.75,0.25
San Juan,e,5.28790,145.42366,67.06027,2.3253124,0.27795988,0.0495094,7.05896,11/5/1990,1950.0,12.70,0.25
San Martin,e,22.38948,137.32991,303.55118,2.2884816,0.28469703,0.1899202,324.94075,11/5/1990,1950.0,13.37,0.25
Sanders,e,3.42115,313.26008,268.37984,2.2404130,0.29390837,0.1115864,277.23799,11/5/1990,1950.0,13.20,0.25
Sandra,e,8.43792,232.22317,336.37418,3.1528921,0.17605177,0.1209322,73.89631,11/5/1990,1950.0,11.50,0.25
Sandrine,e,11.09913,134.69288,248.39681,3.0163374,0.18814132,0.1080240,323.65448,11/5/1990,1950.0,11.04,0.25
Santa,e,7.56588,298.70822,53.52293,2.8835643,0.20128417,0.0656604,231.56011,11/5/1990,1950.0,11.33,0.15
Santini,e,6.24129,4.80108,183.91527,3.3960326,0.15748757,0.0178024,46.49718,11/5/1990,1950.0,11.40,0.25
Sapientia,e,4.77066,133.74607,38.24050,2.7739575,0.21333120,0.1602971,96.30058,11/5/1990,1950.0,8.82,0.15
Sappho,e,8.66194,218.34294,138.77964,2.2957297,0.28334983,0.1995775,31.56739,11/5/1990,1950.0,8.10,0.30
Sapporo,e,0.96503,129.16053,57.18208,2.3639338,0.27117592,0.1554634,114.65279,11/5/1990,1950.0,13.70,0.25
Sara,e,6.54781,180.03335,28.74379,2.9830830,0.19129608,0.0391647,296.79398,11/5/1990,1950.0,9.71,0.25
Sarabhai,e,1.01504,167.07539,335.90947,2.8850084,0.20113306,0.0671141,275.94597,11/5/1990,1950.0,11.83,0.15
Sarahill,e,4.29761,302.77969,212.17489,2.7183593,0.21990939,0.0648920,182.04505,11/5/1990,1950.0,12.09,0.15
Sarema,e,4.04193,72.74921,23.43205,2.4810872,0.25219764,0.1337613,44.48756,11/5/1990,1950.0,12.33,0.15
Sarita,e,19.07157,32.81790,329.23956,2.6333792,0.23063966,0.3227004,295.98762,11/5/1990,1950.0,9.11,0.15
Sarmiento,e,22.80028,63.52224,316.54291,1.9299013,0.36762195,0.1056067,37.28892,11/5/1990,1950.0,14.34,0.40
Sarpedon,e,16.02949,220.43543,58.43826,5.1564915,0.08417296,0.0129736,145.61165,11/5/1990,1950.0,9.41,0.15
Sasha,e,5.50185,25.64159,95.11767,2.2257838,0.29681074,0.0632416,174.89667,11/5/1990,1950.0,12.80,0.25
Saskia,e,1.44403,156.96363,301.64811,3.1079445,0.17988469,0.1574600,84.95060,11/5/1990,1950.0,10.54,0.15
Sather,e,1.57665,36.47942,22.08543,3.1578122,0.17564049,0.1770344,86.96905,11/5/1990,1950.0,12.20,0.25
Satpaev,e,5.16822,337.29977,64.05183,2.2225501,0.29745874,0.1309080,84.33842,11/5/1990,1950.0,13.30,0.25
Saucier,e,0.77979,161.08334,70.82592,3.1701740,0.17461414,0.1090996,145.25937,11/5/1990,1950.0,11.60,0.25
Savo,e,2.45503,194.55448,184.00287,2.1899724,0.30412079,0.1306836,14.58234,11/5/1990,1950.0,13.16,0.25
Savonlinna,e,5.89126,279.04829,63.70433,2.6944695,0.22284052,0.2643141,213.89519,11/5/1990,1950.0,12.50,0.25
